{"type": "FeatureCollection", "features": [ {"type": "Feature", "properties": {"norad_id": 31040, "name": "FENGYUN 1C DEB", "group": "fengyun-1c-debris", "lat": 81.25846128734617, "lon": -119.3082110492735, "alt_km": 831.3849044997205, "timestamp": "2025-12-14T14:39:29.650777+00:00", "meta": {"OBJECT_NAME": "FENGYUN 1C DEB", "OBJECT_ID": "1999-025BEJ", "EPOCH": "2025-12-13T06:06:58.449888", "MEAN_MOTION": 14.17672826, "ECCENTRICITY": 0.0062298, "INCLINATION": 98.6581, "RA_OF_ASC_NODE": 337.0901, "ARG_OF_PERICENTER": 192.6008, "MEAN_ANOMALY": 183.0791, "EPHEMERIS_TYPE": 0, "CLASSIFICATION_TYPE": "U", "NORAD_CAT_ID": 31040, "ELEMENT_SET_NO": 999, "REV_AT_EPOCH": 96714, "BSTAR": 0.00045723199, "MEAN_MOTION_DOT": 9.06e-06, "MEAN_MOTION_DDOT": 0}, "tle": {"line1": "1 31040U 99025BEJ 25347.25484317  .00000906  00000+0  45723-3 0  9996", "line2": "2 31040  98.6581 337.0901 0062298 192.6008 183.0791 14.17672826967143"}}, "geometry": {"type": "Point", "coordinates": [-119.3082110492735, 81.25846128734617]}}, {"type": "Feature", "properties": {"norad_id": 31041, "name": "FENGYUN 1C DEB", "group": "fengyun-1c-debris", "lat": -28.425727128670786, "lon": 22.356518019601438, "alt_km": 778.1558981184271, "timestamp": "2025-12-14T14:39:29.650787+00:00", "meta": {"OBJECT_NAME": "FENGYUN 1C DEB", "OBJECT_ID": "1999-025BEK", "EPOCH": "2025-12-13T13:23:15.179712", "MEAN_MOTION": 14.17848777, "ECCENTRICITY": 0.00869203, "INCLINATION": 99.2057, "RA_OF_ASC_NODE": 16.2297, "ARG_OF_PERICENTER": 317.9642, "MEAN_ANOMALY": 41.4884, "EPHEMERIS_TYPE": 0, "CLASSIFICATION_TYPE": "U", "NORAD_CAT_ID": 31041, "ELEMENT_SET_NO": 999, "REV_AT_EPOCH": 95501, "BSTAR": 0.0026141968, "MEAN_MOTION_DOT": 5.496e-05, "MEAN_MOTION_DDOT": 0}, "tle": {"line1": "1 31041U 99025BEK 25347.55781458  .00005496  00000+0  26142-2 0  9998", "line2": "2 31041  99.2057  16.2297 0086920 317.9642  41.4884 14.17848777955010"}}, "geometry": {"type": "Point", "coordinates": [22.356518019601438, -28.425727128670786]}}, {"type": "Feature", "properties": {"norad_id": 31043, "name": "FENGYUN 1C DEB", "group": "fengyun-1c-debris", "lat": -79.55646627914619, "lon": 63.18771277500451, "alt_km": 868.3752530564643, "timestamp": "2025-12-14T14:39:29.650797+00:00", "meta": {"OBJECT_NAME": "FENGYUN 1C DEB", "OBJECT_ID": "1999-025BEM", "EPOCH": "2025-12-13T19:25:10.205760", "MEAN_MOTION": 14.08430819, "ECCENTRICITY": 0.00413264, "INCLINATION": 98.7644, "RA_OF_ASC_NODE": 5.588, "ARG_OF_PERICENTER": 1.1282, "MEAN_ANOMALY": 172.8427, "EPHEMERIS_TYPE": 0, "CLASSIFICATION_TYPE": "U", "NORAD_CAT_ID": 31043, "ELEMENT_SET_NO": 999, "REV_AT_EPOCH": 96002, "BSTAR": 0.0006862812, "MEAN_MOTION_DOT": 1.143e-05, "MEAN_MOTION_DDOT": 0}, "tle": {"line1": "1 31043U 99025BEM 25347.80914590  .00001143  00000+0  68628-3 0  9994", "line2": "2 31043  98.7644   5.5880 0041326   1.1282 172.8427 14.08430819960023"}}, "geometry": {"type": "Point", "coordinates": [63.18771277500451, -79.55646627914619]}}, {"type": "Feature", "properties": {"norad_id": 31046, "name": "FENGYUN 1C DEB", "group": "fengyun-1c-debris", "lat": 70.55035298554654, "lon": -44.974327525504, "alt_km": 641.5309182314195, "timestamp": "2025-12-14T14:39:29.650807+00:00", "meta": {"OBJECT_NAME": "FENGYUN 1C DEB", "OBJECT_ID": "1999-025BEQ", "EPOCH": "2025-12-13T20:42:25.513056", "MEAN_MOTION": 14.63870856, "ECCENTRICITY": 0.00463105, "INCLINATION": 98.9683, "RA_OF_ASC_NODE": 107.6476, "ARG_OF_PERICENTER": 99.7235, "MEAN_ANOMALY": 28.0072, "EPHEMERIS_TYPE": 0, "CLASSIFICATION_TYPE": "U", "NORAD_CAT_ID": 31046, "ELEMENT_SET_NO": 999, "REV_AT_EPOCH": 96659, "BSTAR": 0.0041248277, "MEAN_MOTION_DOT": 0.00021902, "MEAN_MOTION_DDOT": 0}, "tle": {"line1": "1 31046U 99025BEQ 25347.86279529  .00021902  00000+0  41248-2 0  9992", "line2": "2 31046  98.9683 107.6476 0046310  99.7235  28.0072 14.63870856966591"}}, "geometry": {"type": "Point", "coordinates": [-44.974327525504, 70.55035298554654]}}, {"type": "Feature", "properties": {"norad_id": 31047, "name": "FENGYUN 1C DEB", "group": "fengyun-1c-debris", "lat": -73.44699861453675, "lon": 17.00395427297807, "alt_km": 860.3229995035908, "timestamp": "2025-12-14T14:39:29.650817+00:00", "meta": {"OBJECT_NAME": "FENGYUN 1C DEB", "OBJECT_ID": "1999-025BER", "EPOCH": "2025-12-12T05:34:00.054912", "MEAN_MOTION": 14.13841318, "ECCENTRICITY": 0.00255963, "INCLINATION": 98.7004, "RA_OF_ASC_NODE": 343.6788, "ARG_OF_PERICENTER": 179.2346, "MEAN_ANOMALY": 243.6594, "EPHEMERIS_TYPE": 0, "CLASSIFICATION_TYPE": "U", "NORAD_CAT_ID": 31047, "ELEMENT_SET_NO": 999, "REV_AT_EPOCH": 96352, "BSTAR": 0.00060318894, "MEAN_MOTION_DOT": 1.103e-05, "MEAN_MOTION_DDOT": 0}, "tle": {"line1": "1 31047U 99025BER 25346.23194508  .00001103  00000+0  60319-3 0  9998", "line2": "2 31047  98.7004 343.6788 0025596 179.2346 243.6594 14.13841318963525"}}, "geometry": {"type": "Point", "coordinates": [17.00395427297807, -73.44699861453675]}}, {"type": "Feature", "properties": {"norad_id": 31051, "name": "FENGYUN 1C DEB", "group": "fengyun-1c-debris", "lat": -46.53377213322654, "lon": 28.53399072021099, "alt_km": 928.8123032822205, "timestamp": "2025-12-14T14:39:29.650828+00:00", "meta": {"OBJECT_NAME": "FENGYUN 1C DEB", "OBJECT_ID": "1999-025BEV", "EPOCH": "2025-12-12T21:48:30.367584", "MEAN_MOTION": 14.03033745, "ECCENTRICITY": 0.00534524, "INCLINATION": 98.8183, "RA_OF_ASC_NODE": 17.4591, "ARG_OF_PERICENTER": 135.0078, "MEAN_ANOMALY": 225.5438, "EPHEMERIS_TYPE": 0, "CLASSIFICATION_TYPE": "U", "NORAD_CAT_ID": 31051, "ELEMENT_SET_NO": 999, "REV_AT_EPOCH": 63821, "BSTAR": 0.00016986752, "MEAN_MOTION_DOT": 2.25e-06, "MEAN_MOTION_DDOT": 0}, "tle": {"line1": "1 31051U 99025BEV 25346.90868481  .00000225  00000+0  16987-3 0  9991", "line2": "2 31051  98.8183  17.4591 0053452 135.0078 225.5438 14.03033745638218"}}, "geometry": {"type": "Point", "coordinates": [28.53399072021099, -46.53377213322654]}}, {"type": "Feature", "properties": {"norad_id": 31053, "name": "FENGYUN 1C DEB", "group": "fengyun-1c-debris", "lat": -0.42442893012475136, "lon": 111.04192071580069, "alt_km": 975.5226772537217, "timestamp": "2025-12-14T14:39:29.650838+00:00", "meta": {"OBJECT_NAME": "FENGYUN 1C DEB", "OBJECT_ID": "1999-025BEX", "EPOCH": "2025-12-09T07:15:11.826144", "MEAN_MOTION": 13.75848728, "ECCENTRICITY": 0.0309376, "INCLINATION": 98.7939, "RA_OF_ASC_NODE": 106.0672, "ARG_OF_PERICENTER": 104.1614, "MEAN_ANOMALY": 259.4116, "EPHEMERIS_TYPE": 0, "CLASSIFICATION_TYPE": "U", "NORAD_CAT_ID": 31053, "ELEMENT_SET_NO": 999, "REV_AT_EPOCH": 93429, "BSTAR": 0.0025997, "MEAN_MOTION_DOT": 3.538e-05, "MEAN_MOTION_DDOT": 0}, "tle": {"line1": "1 31053U 99025BEX 25343.30222021  .00003538  00000+0  25997-2 0  9998", "line2": "2 31053  98.7939 106.0672 0309376 104.1614 259.4116 13.75848728934294"}}, "geometry": {"type": "Point", "coordinates": [111.04192071580069, -0.42442893012475136]}}, {"type": "Feature", "properties": {"norad_id": 31054, "name": "FENGYUN 1C DEB", "group": "fengyun-1c-debris", "lat": 28.841062043509996, "lon": -3.2472129705672566, "alt_km": 849.9704886151812, "timestamp": "2025-12-14T14:39:29.650848+00:00", "meta": {"OBJECT_NAME": "FENGYUN 1C DEB", "OBJECT_ID": "1999-025BEY", "EPOCH": "2025-12-12T23:33:01.289952", "MEAN_MOTION": 14.12169943, "ECCENTRICITY": 0.00106903, "INCLINATION": 98.6903, "RA_OF_ASC_NODE": 0.0048, "ARG_OF_PERICENTER": 119.7825, "MEAN_ANOMALY": 270.232, "EPHEMERIS_TYPE": 0, "CLASSIFICATION_TYPE": "U", "NORAD_CAT_ID": 31054, "ELEMENT_SET_NO": 999, "REV_AT_EPOCH": 96767, "BSTAR": 0.00024010055, "MEAN_MOTION_DOT": 3.99e-06, "MEAN_MOTION_DDOT": 0}, "tle": {"line1": "1 31054U 99025BEY 25346.98126493  .00000399  00000+0  24010-3 0  9990", "line2": "2 31054  98.6903   0.0048 0010690 119.7825 270.2320 14.12169943967672"}}, "geometry": {"type": "Point", "coordinates": [-3.2472129705672566, 28.841062043509996]}}, {"type": "Feature", "properties": {"norad_id": 31055, "name": "FENGYUN 1C DEB", "group": "fengyun-1c-debris", "lat": 39.36115220264307, "lon": -152.96143686027978, "alt_km": 865.3322221447906, "timestamp": "2025-12-14T14:39:29.650858+00:00", "meta": {"OBJECT_NAME": "FENGYUN 1C DEB", "OBJECT_ID": "1999-025BEZ", "EPOCH": "2025-12-13T20:05:10.917024", "MEAN_MOTION": 14.10378167, "ECCENTRICITY": 0.00240071, "INCLINATION": 98.7599, "RA_OF_ASC_NODE": 19.0187, "ARG_OF_PERICENTER": 268.7579, "MEAN_ANOMALY": 264.6453, "EPHEMERIS_TYPE": 0, "CLASSIFICATION_TYPE": "U", "NORAD_CAT_ID": 31055, "ELEMENT_SET_NO": 999, "REV_AT_EPOCH": 96137, "BSTAR": 0.0004813979, "MEAN_MOTION_DOT": 8.14e-06, "MEAN_MOTION_DDOT": 0}, "tle": {"line1": "1 31055U 99025BEZ 25347.83693191  .00000814  00000+0  48140-3 0  9992", "line2": "2 31055  98.7599  19.0187 0024007 268.7579 264.6453 14.10378167961370"}}, "geometry": {"type": "Point", "coordinates": [-152.96143686027978, 39.36115220264307]}}, {"type": "Feature", "properties": {"norad_id": 31056, "name": "FENGYUN 1C DEB", "group": "fengyun-1c-debris", "lat": 49.36093275215637, "lon": 161.3503513960157, "alt_km": 856.3744785982581, "timestamp": "2025-12-14T14:39:29.650868+00:00", "meta": {"OBJECT_NAME": "FENGYUN 1C DEB", "OBJECT_ID": "1999-025BFA", "EPOCH": "2025-12-12T10:08:21.253344", "MEAN_MOTION": 14.14305059, "ECCENTRICITY": 0.00254469, "INCLINATION": 98.6669, "RA_OF_ASC_NODE": 328.991, "ARG_OF_PERICENTER": 343.9431, "MEAN_ANOMALY": 170.2622, "EPHEMERIS_TYPE": 0, "CLASSIFICATION_TYPE": "U", "NORAD_CAT_ID": 31056, "ELEMENT_SET_NO": 999, "REV_AT_EPOCH": 96813, "BSTAR": 0.00057540958, "MEAN_MOTION_DOT": 1.06e-05, "MEAN_MOTION_DDOT": 0}, "tle": {"line1": "1 31056U 99025BFA 25346.42246821  .00001060  00000+0  57541-3 0  9990", "line2": "2 31056  98.6669 328.9910 0025446 343.9431 170.2622 14.14305059968130"}}, "geometry": {"type": "Point", "coordinates": [161.3503513960157, 49.36093275215637]}}]}